{
  "norad_id": 65427,
  "name": "STARLINK-34916",
  "history": [
    {
      "epoch": "2026-03-28T20:51:19.348416Z",
      "apogee_km": 476.1196064741971,
      "perigee_km": 474.3012763310444,
      "latitude_deg": 4.094505454330835e-05,
      "longitude_deg": 3.9386763920941914,
      "height_km": 475.9933142285234,
      "semi_major_axis_km": 6853.3474414026205,
      "eccentricity": 0.00013266,
      "inclination_deg": 53.1607,
      "raan_deg": 143.0525,
      "arg_perigee_deg": 82.7198,
      "mean_anomaly_deg": 277.3954,
      "mean_motion_rev_day": 15.3020155
    }
  ]
}