{"fetched_at":"2026-03-29T16:36:15Z","count":15609,"tles":[{"name":"STARLINK-34916","line1":"1 65427U 25192Z   26087.86897394  .00025363  00000+0  86548-3 0  9992","line2":"2 65427  53.1607 143.0525 0001326  82.7198 277.3954 15.30201550 32324","category":"Starlink"}]}